{"type": "FeatureCollection", "features": [ {"type": "Feature", "properties": {"norad_id": 28659, "name": "DIRECTV 8", "group": "intelsat", "lat": 0.023844788504702726, "lon": 48.53015622418843, "alt_km": 35793.59933904326, "timestamp": "2025-12-23T05:02:11.691061+00:00", "meta": {"OBJECT_NAME": "DIRECTV 8", "OBJECT_ID": "2005-019A", "EPOCH": "2025-12-22T21:09:31.000320", "MEAN_MOTION": 1.00271524, "ECCENTRICITY": 0.00029245, "INCLINATION": 0.0181, "RA_OF_ASC_NODE": 18.4024, "ARG_OF_PERICENTER": 263.1502, "MEAN_ANOMALY": 8.4647, "EPHEMERIS_TYPE": 0, "CLASSIFICATION_TYPE": "U", "NORAD_CAT_ID": 28659, "ELEMENT_SET_NO": 999, "REV_AT_EPOCH": 7530, "BSTAR": 0, "MEAN_MOTION_DOT": 2.2e-07, "MEAN_MOTION_DDOT": 0}, "tle": {"line1": "1 28659U 05019A   25356.88160880  .00000022  00000+0  00000+0 0  9997", "line2": "2 28659   0.0181  18.4024 0002924 263.1502   8.4647  1.00271524 75303"}}, "geometry": {"type": "Point", "coordinates": [48.53015622418843, 0.023844788504702726]}}, {"type": "Feature", "properties": {"norad_id": 28702, "name": "GALAXY 28 (G-28)", "group": "intelsat", "lat": -0.09194344832705983, "lon": 78.86631078098272, "alt_km": 35798.41905658221, "timestamp": "2025-12-23T05:02:11.691072+00:00", "meta": {"OBJECT_NAME": "GALAXY 28 (G-28)", "OBJECT_ID": "2005-022A", "EPOCH": "2025-12-20T00:49:30.482112", "MEAN_MOTION": 1.00271047, "ECCENTRICITY": 0.00029384, "INCLINATION": 2.8382, "RA_OF_ASC_NODE": 81.1982, "ARG_OF_PERICENTER": 194.0723, "MEAN_ANOMALY": 97.2981, "EPHEMERIS_TYPE": 0, "CLASSIFICATION_TYPE": "U", "NORAD_CAT_ID": 28702, "ELEMENT_SET_NO": 999, "REV_AT_EPOCH": 5017, "BSTAR": 0, "MEAN_MOTION_DOT": -1.65e-06, "MEAN_MOTION_DDOT": 0}, "tle": {"line1": "1 28702U 05022A   25354.03438058 -.00000165  00000+0  00000+0 0  9999", "line2": "2 28702   2.8382  81.1982 0002938 194.0723  97.2981  1.00271047 50172"}}, "geometry": {"type": "Point", "coordinates": [78.86631078098272, -0.09194344832705983]}}, {"type": "Feature", "properties": {"norad_id": 29236, "name": "GALAXY 16 (G-16)", "group": "intelsat", "lat": -0.003542294639456888, "lon": 68.54566154814825, "alt_km": 35796.00438032231, "timestamp": "2025-12-23T05:02:11.691085+00:00", "meta": {"OBJECT_NAME": "GALAXY 16 (G-16)", "OBJECT_ID": "2006-023A", "EPOCH": "2025-12-22T19:32:17.808864", "MEAN_MOTION": 1.00270734, "ECCENTRICITY": 0.00025149, "INCLINATION": 0.0081, "RA_OF_ASC_NODE": 128.8096, "ARG_OF_PERICENTER": 145.2151, "MEAN_ANOMALY": 11.6522, "EPHEMERIS_TYPE": 0, "CLASSIFICATION_TYPE": "U", "NORAD_CAT_ID": 29236, "ELEMENT_SET_NO": 999, "REV_AT_EPOCH": 7120, "BSTAR": 0, "MEAN_MOTION_DOT": -1.05e-06, "MEAN_MOTION_DDOT": 0}, "tle": {"line1": "1 29236U 06023A   25356.81409501 -.00000105  00000+0  00000+0 0  9997", "line2": "2 29236   0.0081 128.8096 0002514 145.2151  11.6522  1.00270734 71209"}}, "geometry": {"type": "Point", "coordinates": [68.54566154814825, -0.003542294639456888]}}, {"type": "Feature", "properties": {"norad_id": 29494, "name": "DIRECTV 9S", "group": "intelsat", "lat": -0.5464318196829812, "lon": 66.36669780774508, "alt_km": 35796.61343474856, "timestamp": "2025-12-23T05:02:11.691096+00:00", "meta": {"OBJECT_NAME": "DIRECTV 9S", "OBJECT_ID": "2006-043A", "EPOCH": "2025-12-22T14:23:47.349312", "MEAN_MOTION": 1.00272238, "ECCENTRICITY": 0.00028786, "INCLINATION": 1.964, "RA_OF_ASC_NODE": 83.1086, "ARG_OF_PERICENTER": 193.1253, "MEAN_ANOMALY": 289.9086, "EPHEMERIS_TYPE": 0, "CLASSIFICATION_TYPE": "U", "NORAD_CAT_ID": 29494, "ELEMENT_SET_NO": 999, "REV_AT_EPOCH": 4961, "BSTAR": 0, "MEAN_MOTION_DOT": -9.3e-07, "MEAN_MOTION_DDOT": 0}, "tle": {"line1": "1 29494U 06043A   25356.59985358 -.00000093  00000+0  00000+0 0  9995", "line2": "2 29494   1.9640  83.1086 0002878 193.1253 289.9086  1.00272238 49612"}}, "geometry": {"type": "Point", "coordinates": [66.36669780774508, -0.5464318196829812]}}, {"type": "Feature", "properties": {"norad_id": 31307, "name": "GALAXY 17 (G-17)", "group": "intelsat", "lat": 0.03953097810655891, "lon": 82.55116630719613, "alt_km": 35809.014284809826, "timestamp": "2025-12-23T05:02:11.691108+00:00", "meta": {"OBJECT_NAME": "GALAXY 17 (G-17)", "OBJECT_ID": "2007-016B", "EPOCH": "2025-12-22T21:19:15.066912", "MEAN_MOTION": 1.00269711, "ECCENTRICITY": 0.00053352, "INCLINATION": 2.5239, "RA_OF_ASC_NODE": 82.1716, "ARG_OF_PERICENTER": 171.6525, "MEAN_ANOMALY": 72.6914, "EPHEMERIS_TYPE": 0, "CLASSIFICATION_TYPE": "U", "NORAD_CAT_ID": 31307, "ELEMENT_SET_NO": 999, "REV_AT_EPOCH": 6803, "BSTAR": 0, "MEAN_MOTION_DOT": -1.86e-06, "MEAN_MOTION_DDOT": 0}, "tle": {"line1": "1 31307U 07016B   25356.88836883 -.00000186  00000+0  00000+0 0  9995", "line2": "2 31307   2.5239  82.1716 0005335 171.6525  72.6914  1.00269711 68038"}}, "geometry": {"type": "Point", "coordinates": [82.55116630719613, 0.03953097810655891]}}, {"type": "Feature", "properties": {"norad_id": 31862, "name": "DIRECTV 10", "group": "intelsat", "lat": 0.0038472944780203514, "lon": 64.75449016656665, "alt_km": 35786.254069746756, "timestamp": "2025-12-23T05:02:11.691119+00:00", "meta": {"OBJECT_NAME": "DIRECTV 10", "OBJECT_ID": "2007-032A", "EPOCH": "2025-12-22T14:23:17.397024", "MEAN_MOTION": 1.00274167, "ECCENTRICITY": 2.112e-05, "INCLINATION": 0.0071, "RA_OF_ASC_NODE": 104.9786, "ARG_OF_PERICENTER": 118.9337, "MEAN_ANOMALY": 340.5167, "EPHEMERIS_TYPE": 0, "CLASSIFICATION_TYPE": "U", "NORAD_CAT_ID": 31862, "ELEMENT_SET_NO": 999, "REV_AT_EPOCH": 4382, "BSTAR": 0, "MEAN_MOTION_DOT": -8.2e-07, "MEAN_MOTION_DDOT": 0}, "tle": {"line1": "1 31862U 07032A   25356.59950691 -.00000082  00000+0  00000+0 0  9996", "line2": "2 31862   0.0071 104.9786 0000211 118.9337 340.5167  1.00274167 43822"}}, "geometry": {"type": "Point", "coordinates": [64.75449016656665, 0.0038472944780203514]}}, {"type": "Feature", "properties": {"norad_id": 32253, "name": "INTELSAT 11 (IS-11)", "group": "intelsat", "lat": -3.1111437879307346, "lon": -12.698054899341619, "alt_km": 36135.641216174554, "timestamp": "2025-12-23T05:02:11.691131+00:00", "meta": {"OBJECT_NAME": "INTELSAT 11 (IS-11)", "OBJECT_ID": "2007-044B", "EPOCH": "2025-12-22T19:09:49.960224", "MEAN_MOTION": 0.99052824, "ECCENTRICITY": 0.0008553, "INCLINATION": 3.1047, "RA_OF_ASC_NODE": 80.8652, "ARG_OF_PERICENTER": 169.9478, "MEAN_ANOMALY": 309.7083, "EPHEMERIS_TYPE": 0, "CLASSIFICATION_TYPE": "U", "NORAD_CAT_ID": 32253, "ELEMENT_SET_NO": 999, "REV_AT_EPOCH": 6670, "BSTAR": 0, "MEAN_MOTION_DOT": -1.28e-06, "MEAN_MOTION_DDOT": 0}, "tle": {"line1": "1 32253U 07044B   25356.79849491 -.00000128  00000+0  00000+0 0  9992", "line2": "2 32253   3.1047  80.8652 0008553 169.9478 309.7083  0.99052824 66704"}}, "geometry": {"type": "Point", "coordinates": [-12.698054899341619, -3.1111437879307346]}}, {"type": "Feature", "properties": {"norad_id": 32388, "name": "HORIZONS-2", "group": "intelsat", "lat": 0.43045540957731104, "lon": 93.754697649008, "alt_km": 35806.02285059633, "timestamp": "2025-12-23T05:02:11.691142+00:00", "meta": {"OBJECT_NAME": "HORIZONS-2", "OBJECT_ID": "2007-063B", "EPOCH": "2025-12-22T21:22:29.757216", "MEAN_MOTION": 1.00270659, "ECCENTRICITY": 0.0004651, "INCLINATION": 2.1464, "RA_OF_ASC_NODE": 82.8521, "ARG_OF_PERICENTER": 195.4042, "MEAN_ANOMALY": 60.2691, "EPHEMERIS_TYPE": 0, "CLASSIFICATION_TYPE": "U", "NORAD_CAT_ID": 32388, "ELEMENT_SET_NO": 999, "REV_AT_EPOCH": 6604, "BSTAR": 0, "MEAN_MOTION_DOT": -2.33e-06, "MEAN_MOTION_DDOT": 0}, "tle": {"line1": "1 32388U 07063B   25356.89062219 -.00000233  00000+0  00000+0 0  9995", "line2": "2 32388   2.1464  82.8521 0004651 195.4042  60.2691  1.00270659 66040"}}, "geometry": {"type": "Point", "coordinates": [93.754697649008, 0.43045540957731104]}}, {"type": "Feature", "properties": {"norad_id": 32729, "name": "DIRECTV 11", "group": "intelsat", "lat": 0.019764073988804785, "lon": 68.31934399552829, "alt_km": 35788.11282479722, "timestamp": "2025-12-23T05:02:11.691154+00:00", "meta": {"OBJECT_NAME": "DIRECTV 11", "OBJECT_ID": "2008-013A", "EPOCH": "2025-12-21T16:09:00.789984", "MEAN_MOTION": 1.00267418, "ECCENTRICITY": 8.567e-05, "INCLINATION": 0.0458, "RA_OF_ASC_NODE": 200.3144, "ARG_OF_PERICENTER": 330.5483, "MEAN_ANOMALY": 62.6867, "EPHEMERIS_TYPE": 0, "CLASSIFICATION_TYPE": "U", "NORAD_CAT_ID": 32729, "ELEMENT_SET_NO": 999, "REV_AT_EPOCH": 4381, "BSTAR": 0, "MEAN_MOTION_DOT": -1.03e-06, "MEAN_MOTION_DDOT": 0}, "tle": {"line1": "1 32729U 08013A   25355.67292581 -.00000103  00000+0  00000+0 0  9998", "line2": "2 32729   0.0458 200.3144 0000856 330.5483  62.6867  1.00267418 43811"}}, "geometry": {"type": "Point", "coordinates": [68.31934399552829, 0.019764073988804785]}}, {"type": "Feature", "properties": {"norad_id": 32951, "name": "GALAXY 18 (G-18)", "group": "intelsat", "lat": 0.02262344428074285, "lon": 44.56210446697218, "alt_km": 35793.733415854316, "timestamp": "2025-12-23T05:02:11.691166+00:00", "meta": {"OBJECT_NAME": "GALAXY 18 (G-18)", "OBJECT_ID": "2008-024A", "EPOCH": "2025-12-22T17:42:58.277664", "MEAN_MOTION": 1.00271901, "ECCENTRICITY": 0.00029085, "INCLINATION": 0.018, "RA_OF_ASC_NODE": 293.7428, "ARG_OF_PERICENTER": 342.0585, "MEAN_ANOMALY": 318.4704, "EPHEMERIS_TYPE": 0, "CLASSIFICATION_TYPE": "U", "NORAD_CAT_ID": 32951, "ELEMENT_SET_NO": 999, "REV_AT_EPOCH": 4408, "BSTAR": 0, "MEAN_MOTION_DOT": 4.7e-07, "MEAN_MOTION_DDOT": 0}, "tle": {"line1": "1 32951U 08024A   25356.73817451  .00000047  00000+0  00000+0 0  9990", "line2": "2 32951   0.0180 293.7428 0002908 342.0585 318.4704  1.00271901 44086"}}, "geometry": {"type": "Point", "coordinates": [44.56210446697218, 0.02262344428074285]}}]}